IRIDIUM 159             
1 43578U 18061K   24277.08034775  .00000904  00000+0  31583-3 0  9994
2 43578  86.3958 316.7025 0002294  93.0233 267.1225 14.34222248324218
IRIDIUM 180             
1 43922U 19002A   24277.35889944  .00000791  00000+0  27531-3 0  9991
2 43922  86.3925 253.4132 0002243  83.5624 276.5827 14.34227451299868
IRIDIUM 176             
1 43923U 19002B   24277.45834410  .00002406  00000+0  37733-3 0  9991
2 43923  86.6053 253.3841 0002631  80.8629 279.2885 14.72275615307777
IRIDIUM 168             
1 43924U 19002C   24277.49211586  .00000611  00000+0  21097-3 0  9991
2 43924  86.3927 253.4174 0002293  86.3481 273.7977 14.34221036299863
IRIDIUM 173             
1 43925U 19002D   24277.47943246 -.00000194  00000+0 -76437-4 0  9992
2 43925  86.3927 253.3372 0002120  83.0848 277.0589 14.34214950299844
IRIDIUM 169             
1 43926U 19002E   24277.56275960  .00000639  00000+0  20226-3 0  9990
2 43926  86.4163 284.9526 0001331 146.8261 213.3021 14.38607846300851
IRIDIUM 172             
1 43927U 19002F   24277.47308901  .00000202  00000+0  64983-4 0  9998
2 43927  86.3925 253.3457 0002319  88.3165 271.8296 14.34216374299858
IRIDIUM 175             
1 43928U 19002G   24277.31695967  .00005601  00000+0  88363-3 0  9998
2 43928  86.1536 220.4989 0002306  91.4725 268.6756 14.72257180307748
